1 27424U 02022A   12284.25413755  .00000615  00000-0  14659-3 0  4540
2 27424 098.2050 223.0470 0001119 084.1556 275.9755 14.57099704555128